[{"OBJECT_NAME":"STARLINK-31951","OBJECT_ID":"2024-100F","EPOCH":"2026-03-09T12:31:57.336960","MEAN_MOTION":15.27567684,"ECCENTRICITY":9.009e-5,"INCLINATION":42.9998,"RA_OF_ASC_NODE":126.1377,"ARG_OF_PERICENTER":306.1057,"MEAN_ANOMALY":53.9711,"EPHEMERIS_TYPE":0,"CLASSIFICATION_TYPE":"U","NORAD_CAT_ID":59890,"ELEMENT_SET_NO":999,"REV_AT_EPOCH":10103,"BSTAR":-0.0001021069,"MEAN_MOTION_DOT":-3.069e-5,"MEAN_MOTION_DDOT":0},{"OBJECT_NAME":"COSMOS 2251 DEB","OBJECT_ID":"1993-036AWN","EPOCH":"2026-03-09T06:26:08.321568","MEAN_MOTION":15.11257706,"ECCENTRICITY":0.00842289,"INCLINATION":74.0116,"RA_OF_ASC_NODE":284.5024,"ARG_OF_PERICENTER":350.308,"MEAN_ANOMALY":9.6482,"EPHEMERIS_TYPE":0,"CLASSIFICATION_TYPE":"U","NORAD_CAT_ID":35996,"ELEMENT_SET_NO":999,"REV_AT_EPOCH":73632,"BSTAR":0.00055219842,"MEAN_MOTION_DOT":0.00010085,"MEAN_MOTION_DDOT":0}]
